{
  "type": "FeatureCollection",
  "features": [
    {
      "type": "Feature",
      "properties": {
        "norad_id": 34962,
        "name": "COSMOS 2251 DEB",
        "group": "cosmos-2251-debris",
        "lat": -43.04728790616956,
        "lon": 33.61166423477166,
        "alt_km": 742.4467896243559,
        "timestamp": "2025-12-10T04:57:30.017464+00:00",
        "meta_object_name": "COSMOS 2251 DEB",
        "meta_object_id": "1993-036AER",
        "meta_epoch": "2025-12-09T14:38:25.048032",
        "meta_mean_motion": 14.46503522,
        "meta_eccentricity": 0.0018764,
        "meta_inclination": 74.0293,
        "meta_ra_of_asc_node": 199.2104,
        "meta_arg_of_pericenter": 312.5385,
        "meta_mean_anomaly": 47.4189,
        "meta_ephemeris_type": 0,
        "meta_classification_type": "U",
        "meta_norad_cat_id": 34962,
        "meta_element_set_no": 999,
        "meta_rev_at_epoch": 87533,
        "meta_bstar": 0.00067192,
        "meta_mean_motion_dot": 2.398e-05,
        "meta_mean_motion_ddot": 0,
        "tle_line1": "1 34962U 93036AER 25343.61001213  .00002398  00000+0  67192-3 0  9995",
        "tle_line2": "2 34962  74.0293 199.2104 0018764 312.5385  47.4189 14.46503522875331"
      },
      "geometry": {
        "type": "Point",
        "coordinates": [
          33.61166423477166,
          -43.04728790616956
        ]
      }
    },
    {
      "type": "Feature",
      "properties": {
        "norad_id": 34963,
        "name": "COSMOS 2251 DEB",
        "group": "cosmos-2251-debris",
        "lat": 72.29139839343873,
        "lon": 110.15152736004381,
        "alt_km": 743.7470116657678,
        "timestamp": "2025-12-10T04:57:30.017474+00:00",
        "meta_object_name": "COSMOS 2251 DEB",
        "meta_object_id": "1993-036AES",
        "meta_epoch": "2025-12-08T12:52:00.806016",
        "meta_mean_motion": 14.51014391,
        "meta_eccentricity": 0.0042597,
        "meta_inclination": 74.1718,
        "meta_ra_of_asc_node": 50.5866,
        "meta_arg_of_pericenter": 247.8405,
        "meta_mean_anomaly": 111.8233,
        "meta_ephemeris_type": 0,
        "meta_classification_type": "U",
        "meta_norad_cat_id": 34963,
        "meta_element_set_no": 999,
        "meta_rev_at_epoch": 86740,
        "meta_bstar": 0.0019565,
        "meta_mean_motion_dot": 7.813e-05,
        "meta_mean_motion_ddot": 0,
        "tle_line1": "1 34963U 93036AES 25342.53612044  .00007813  00000+0  19565-2 0  9993",
        "tle_line2": "2 34963  74.1718  50.5866 0042597 247.8405 111.8233 14.51014391867405"
      },
      "geometry": {
        "type": "Point",
        "coordinates": [
          110.15152736004381,
          72.29139839343873
        ]
      }
    },
    {
      "type": "Feature",
      "properties": {
        "norad_id": 34964,
        "name": "COSMOS 2251 DEB",
        "group": "cosmos-2251-debris",
        "lat": -19.806586797225055,
        "lon": 178.19490816651825,
        "alt_km": 744.0639994929425,
        "timestamp": "2025-12-10T04:57:30.017484+00:00",
        "meta_object_name": "COSMOS 2251 DEB",
        "meta_object_id": "1993-036AET",
        "meta_epoch": "2025-12-06T09:08:23.227296",
        "meta_mean_motion": 14.00561346,
        "meta_eccentricity": 0.02131727,
        "meta_inclination": 73.9719,
        "meta_ra_of_asc_node": 358.9078,
        "meta_arg_of_pericenter": 218.6047,
        "meta_mean_anomaly": 139.9683,
        "meta_ephemeris_type": 0,
        "meta_classification_type": "U",
        "meta_norad_cat_id": 34964,
        "meta_element_set_no": 999,
        "meta_rev_at_epoch": 84389,
        "meta_bstar": 0.0026176283,
        "meta_mean_motion_dot": 4.714e-05,
        "meta_mean_motion_ddot": 0,
        "tle_line1": "1 34964U 93036AET 25340.38082439  .00004714  00000+0  26176-2 0  9997",
        "tle_line2": "2 34964  73.9719 358.9078 0213172 218.6047 139.9683 14.00561346843899"
      },
      "geometry": {
        "type": "Point",
        "coordinates": [
          178.19490816651825,
          -19.806586797225055
        ]
      }
    },
    {
      "type": "Feature",
      "properties": {
        "norad_id": 34965,
        "name": "COSMOS 2251 DEB",
        "group": "cosmos-2251-debris",
        "lat": -11.943756670242955,
        "lon": -43.322515642983035,
        "alt_km": 726.9945963629807,
        "timestamp": "2025-12-10T04:57:30.017494+00:00",
        "meta_object_name": "COSMOS 2251 DEB",
        "meta_object_id": "1993-036AEU",
        "meta_epoch": "2025-12-09T19:47:02.920704",
        "meta_mean_motion": 14.48695623,
        "meta_eccentricity": 0.002651,
        "meta_inclination": 74.0503,
        "meta_ra_of_asc_node": 133.9247,
        "meta_arg_of_pericenter": 261.6118,
        "meta_mean_anomaly": 98.2037,
        "meta_ephemeris_type": 0,
        "meta_classification_type": "U",
        "meta_norad_cat_id": 34965,
        "meta_element_set_no": 999,
        "meta_rev_at_epoch": 87071,
        "meta_bstar": 0.0006084,
        "meta_mean_motion_dot": 2.276e-05,
        "meta_mean_motion_ddot": 0,
        "tle_line1": "1 34965U 93036AEU 25343.82433936  .00002276  00000+0  60840-3 0  9990",
        "tle_line2": "2 34965  74.0503 133.9247 0026510 261.6118  98.2037 14.48695623870716"
      },
      "geometry": {
        "type": "Point",
        "coordinates": [
          -43.322515642983035,
          -11.943756670242955
        ]
      }
    },
    {
      "type": "Feature",
      "properties": {
        "norad_id": 34967,
        "name": "COSMOS 2251 DEB",
        "group": "cosmos-2251-debris",
        "lat": 34.13035985741672,
        "lon": 67.36545632298116,
        "alt_km": 745.9251825933679,
        "timestamp": "2025-12-10T04:57:30.017504+00:00",
        "meta_object_name": "COSMOS 2251 DEB",
        "meta_object_id": "1993-036AEW",
        "meta_epoch": "2025-12-08T12:23:52.050624",
        "meta_mean_motion": 14.44233301,
        "meta_eccentricity": 0.00378,
        "meta_inclination": 73.9938,
        "meta_ra_of_asc_node": 261.7361,
        "meta_arg_of_pericenter": 49.0398,
        "meta_mean_anomaly": 311.4019,
        "meta_ephemeris_type": 0,
        "meta_classification_type": "U",
        "meta_norad_cat_id": 34967,
        "meta_element_set_no": 999,
        "meta_rev_at_epoch": 64896,
        "meta_bstar": 0.0012271,
        "meta_mean_motion_dot": 4.227e-05,
        "meta_mean_motion_ddot": 0,
        "tle_line1": "1 34967U 93036AEW 25342.51657466  .00004227  00000+0  12271-2 0  9995",
        "tle_line2": "2 34967  73.9938 261.7361 0037800  49.0398 311.4019 14.44233301648964"
      },
      "geometry": {
        "type": "Point",
        "coordinates": [
          67.36545632298116,
          34.13035985741672
        ]
      }
    },
    {
      "type": "Feature",
      "properties": {
        "norad_id": 34968,
        "name": "COSMOS 2251 DEB",
        "group": "cosmos-2251-debris",
        "lat": -39.08126271840907,
        "lon": 85.33806435330666,
        "alt_km": 755.1428311644986,
        "timestamp": "2025-12-10T04:57:30.017514+00:00",
        "meta_object_name": "COSMOS 2251 DEB",
        "meta_object_id": "1993-036AEX",
        "meta_epoch": "2025-12-09T18:04:38.110368",
        "meta_mean_motion": 14.59398553,
        "meta_eccentricity": 0.0086476,
        "meta_inclination": 74.039,
        "meta_ra_of_asc_node": 252.7617,
        "meta_arg_of_pericenter": 13.8814,
        "meta_mean_anomaly": 346.4698,
        "meta_ephemeris_type": 0,
        "meta_classification_type": "U",
        "meta_norad_cat_id": 34968,
        "meta_element_set_no": 999,
        "meta_rev_at_epoch": 88434,
        "meta_bstar": 0.00031368,
        "meta_mean_motion_dot": 1.533e-05,
        "meta_mean_motion_ddot": 0,
        "tle_line1": "1 34968U 93036AEX 25343.75321887  .00001533  00000+0  31368-3 0  9994",
        "tle_line2": "2 34968  74.0390 252.7617 0086476  13.8814 346.4698 14.59398553884340"
      },
      "geometry": {
        "type": "Point",
        "coordinates": [
          85.33806435330666,
          -39.08126271840907
        ]
      }
    },
    {
      "type": "Feature",
      "properties": {
        "norad_id": 34969,
        "name": "COSMOS 2251 DEB",
        "group": "cosmos-2251-debris",
        "lat": -19.141890725397964,
        "lon": -146.51701113861998,
        "alt_km": 747.2437989401378,
        "timestamp": "2025-12-10T04:57:30.017557+00:00",
        "meta_object_name": "COSMOS 2251 DEB",
        "meta_object_id": "1993-036AEY",
        "meta_epoch": "2025-12-09T11:16:06.111552",
        "meta_mean_motion": 14.32248944,
        "meta_eccentricity": 0.00738203,
        "meta_inclination": 74.0146,
        "meta_ra_of_asc_node": 29.119,
        "meta_arg_of_pericenter": 163.1468,
        "meta_mean_anomaly": 197.2162,
        "meta_ephemeris_type": 0,
        "meta_classification_type": "U",
        "meta_norad_cat_id": 34969,
        "meta_element_set_no": 999,
        "meta_rev_at_epoch": 65090,
        "meta_bstar": 0.00049233942,
        "meta_mean_motion_dot": 1.343e-05,
        "meta_mean_motion_ddot": 0,
        "tle_line1": "1 34969U 93036AEY 25343.46951518  .00001343  00000+0  49234-3 0  9993",
        "tle_line2": "2 34969  74.0146  29.1190 0073820 163.1468 197.2162 14.32248944650905"
      },
      "geometry": {
        "type": "Point",
        "coordinates": [
          -146.51701113861998,
          -19.141890725397964
        ]
      }
    }
  ]
}